{
  "type": "FeatureCollection",
  "features": [
    {
      "type": "Feature",
      "properties": {
        "norad_id": 25590,
        "name": "COSMOS 2361",
        "group": "musson",
        "lat": -32.092024301332714,
        "lon": -17.35282592914813,
        "alt_km": 979.857568139334,
        "timestamp": "2025-12-08T15:42:50.060660+00:00",
        "meta_object_name": "COSMOS 2361",
        "meta_object_id": "1998-076A",
        "meta_epoch": "2025-12-08T07:10:44.166720",
        "meta_mean_motion": 13.73216775,
        "meta_eccentricity": 0.00300721,
        "meta_inclination": 82.9339,
        "meta_ra_of_asc_node": 347.3711,
        "meta_arg_of_pericenter": 278.5091,
        "meta_mean_anomaly": 91.8958,
        "meta_ephemeris_type": 0,
        "meta_classification_type": "U",
        "meta_norad_cat_id": 25590,
        "meta_element_set_no": 999,
        "meta_rev_at_epoch": 35050,
        "meta_bstar": 8.7736646e-05,
        "meta_mean_motion_dot": 9.6e-07,
        "meta_mean_motion_ddot": 0,
        "tle_line1": "1 25590U 98076A   25342.29912230  .00000096  00000+0  87737-4 0  9995",
        "tle_line2": "2 25590  82.9339 347.3711 0030072 278.5091  91.8958 13.73216775350502"
      },
      "geometry": {
        "type": "Point",
        "coordinates": [
          -17.35282592914813,
          -32.092024301332714
        ]
      }
    },
    {
      "type": "Feature",
      "properties": {
        "norad_id": 26818,
        "name": "COSMOS 2378",
        "group": "musson",
        "lat": 26.267243851136904,
        "lon": 6.266904695953317,
        "alt_km": 1007.0633193922304,
        "timestamp": "2025-12-08T15:42:50.060681+00:00",
        "meta_object_name": "COSMOS 2378",
        "meta_object_id": "2001-023A",
        "meta_epoch": "2025-12-08T03:39:36.671328",
        "meta_mean_motion": 13.741414,
        "meta_eccentricity": 0.00321516,
        "meta_inclination": 82.9274,
        "meta_ra_of_asc_node": 3.1265,
        "meta_arg_of_pericenter": 217.8988,
        "meta_mean_anomaly": 205.4922,
        "meta_ephemeris_type": 0,
        "meta_classification_type": "U",
        "meta_norad_cat_id": 26818,
        "meta_element_set_no": 999,
        "meta_rev_at_epoch": 22860,
        "meta_bstar": 5.3869753e-05,
        "meta_mean_motion_dot": 6.6e-07,
        "meta_mean_motion_ddot": 0,
        "tle_line1": "1 26818U 01023A   25342.15250777  .00000066  00000+0  53870-4 0  9999",
        "tle_line2": "2 26818  82.9274   3.1265 0032151 217.8988 205.4922 13.74141400228608"
      },
      "geometry": {
        "type": "Point",
        "coordinates": [
          6.266904695953317,
          26.267243851136904
        ]
      }
    },
    {
      "type": "Feature",
      "properties": {
        "norad_id": 27436,
        "name": "COSMOS 2389",
        "group": "musson",
        "lat": -38.617081302511764,
        "lon": 135.68186955841279,
        "alt_km": 1016.9572116894506,
        "timestamp": "2025-12-08T15:42:50.060694+00:00",
        "meta_object_name": "COSMOS 2389",
        "meta_object_id": "2002-026A",
        "meta_epoch": "2025-12-08T08:12:12.212928",
        "meta_mean_motion": 13.75153971,
        "meta_eccentricity": 0.00477163,
        "meta_inclination": 82.9499,
        "meta_ra_of_asc_node": 310.2407,
        "meta_arg_of_pericenter": 72.6887,
        "meta_mean_anomaly": 37.5413,
        "meta_ephemeris_type": 0,
        "meta_classification_type": "U",
        "meta_norad_cat_id": 27436,
        "meta_element_set_no": 999,
        "meta_rev_at_epoch": 18088,
        "meta_bstar": 9.3732817e-05,
        "meta_mean_motion_dot": 1.06e-06,
        "meta_mean_motion_ddot": 0,
        "tle_line1": "1 27436U 02026A   25342.34180802  .00000106  00000+0  93733-4 0  9999",
        "tle_line2": "2 27436  82.9499 310.2407 0047716  72.6887  37.5413 13.75153971180885"
      },
      "geometry": {
        "type": "Point",
        "coordinates": [
          135.68186955841279,
          -38.617081302511764
        ]
      }
    },
    {
      "type": "Feature",
      "properties": {
        "norad_id": 27818,
        "name": "COSMOS 2398",
        "group": "musson",
        "lat": -32.10731816902477,
        "lon": 100.16313880193539,
        "alt_km": 996.7968424726814,
        "timestamp": "2025-12-08T15:42:50.060706+00:00",
        "meta_object_name": "COSMOS 2398",
        "meta_object_id": "2003-023A",
        "meta_epoch": "2025-12-08T06:27:54.457920",
        "meta_mean_motion": 13.72385011,
        "meta_eccentricity": 0.0032419,
        "meta_inclination": 82.9481,
        "meta_ra_of_asc_node": 275.9925,
        "meta_arg_of_pericenter": 123.7736,
        "meta_mean_anomaly": 345.272,
        "meta_ephemeris_type": 0,
        "meta_classification_type": "U",
        "meta_norad_cat_id": 27818,
        "meta_element_set_no": 999,
        "meta_rev_at_epoch": 12755,
        "meta_bstar": 9.5271347e-05,
        "meta_mean_motion_dot": 1.03e-06,
        "meta_mean_motion_ddot": 0,
        "tle_line1": "1 27818U 03023A   25342.26938030  .00000103  00000+0  95271-4 0  9992",
        "tle_line2": "2 27818  82.9481 275.9925 0032419 123.7736 345.2720 13.72385011127551"
      },
      "geometry": {
        "type": "Point",
        "coordinates": [
          100.16313880193539,
          -32.10731816902477
        ]
      }
    },
    {
      "type": "Feature",
      "properties": {
        "norad_id": 28380,
        "name": "COSMOS 2407",
        "group": "musson",
        "lat": -10.53176830071994,
        "lon": -145.39912082521016,
        "alt_km": 974.0373893475407,
        "timestamp": "2025-12-08T15:42:50.060717+00:00",
        "meta_object_name": "COSMOS 2407",
        "meta_object_id": "2004-028A",
        "meta_epoch": "2025-12-08T04:06:19.908000",
        "meta_mean_motion": 13.76312942,
        "meta_eccentricity": 0.00404495,
        "meta_inclination": 82.9613,
        "meta_ra_of_asc_node": 216.2751,
        "meta_arg_of_pericenter": 67.2262,
        "meta_mean_anomaly": 47.5663,
        "meta_ephemeris_type": 0,
        "meta_classification_type": "U",
        "meta_norad_cat_id": 28380,
        "meta_element_set_no": 999,
        "meta_rev_at_epoch": 7360,
        "meta_bstar": 9.361977e-05,
        "meta_mean_motion_dot": 1.07e-06,
        "meta_mean_motion_ddot": 0,
        "tle_line1": "1 28380U 04028A   25342.17106375  .00000107  00000+0  93620-4 0  9992",
        "tle_line2": "2 28380  82.9613 216.2751 0040449  67.2262  47.5663 13.76312942 73607"
      },
      "geometry": {
        "type": "Point",
        "coordinates": [
          -145.39912082521016,
          -10.53176830071994
        ]
      }
    },
    {
      "type": "Feature",
      "properties": {
        "norad_id": 28521,
        "name": "COSMOS 2414",
        "group": "musson",
        "lat": 79.89726811739007,
        "lon": -128.25903958864615,
        "alt_km": 917.5747571681513,
        "timestamp": "2025-12-08T15:42:50.060728+00:00",
        "meta_object_name": "COSMOS 2414",
        "meta_object_id": "2005-002A",
        "meta_epoch": "2025-12-08T06:39:52.496352",
        "meta_mean_motion": 13.87902164,
        "meta_eccentricity": 0.00406371,
        "meta_inclination": 82.9496,
        "meta_ra_of_asc_node": 188.034,
        "meta_arg_of_pericenter": 152.2218,
        "meta_mean_anomaly": 208.1128,
        "meta_ephemeris_type": 0,
        "meta_classification_type": "U",
        "meta_norad_cat_id": 28521,
        "meta_element_set_no": 999,
        "meta_rev_at_epoch": 5733,
        "meta_bstar": 8.6950372e-05,
        "meta_mean_motion_dot": 1.2e-06,
        "meta_mean_motion_ddot": 0,
        "tle_line1": "1 28521U 05002A   25342.27769093  .00000120  00000+0  86950-4 0  9998",
        "tle_line2": "2 28521  82.9496 188.0340 0040637 152.2218 208.1128 13.87902164 57334"
      },
      "geometry": {
        "type": "Point",
        "coordinates": [
          -128.25903958864615,
          79.89726811739007
        ]
      }
    },
    {
      "type": "Feature",
      "properties": {
        "norad_id": 32052,
        "name": "COSMOS 2429",
        "group": "musson",
        "lat": 43.98161754137052,
        "lon": -6.850443067345717,
        "alt_km": 948.4603821748369,
        "timestamp": "2025-12-08T15:42:50.060739+00:00",
        "meta_object_name": "COSMOS 2429",
        "meta_object_id": "2007-038A",
        "meta_epoch": "2025-12-08T06:46:08.273280",
        "meta_mean_motion": 13.7514869,
        "meta_eccentricity": 0.00394487,
        "meta_inclination": 82.9803,
        "meta_ra_of_asc_node": 346.5953,
        "meta_arg_of_pericenter": 49.9892,
        "meta_mean_anomaly": 310.4715,
        "meta_ephemeris_type": 0,
        "meta_classification_type": "U",
        "meta_norad_cat_id": 32052,
        "meta_element_set_no": 999,
        "meta_rev_at_epoch": 91541,
        "meta_bstar": 6.5559722e-05,
        "meta_mean_motion_dot": 7.9e-07,
        "meta_mean_motion_ddot": 0,
        "tle_line1": "1 32052U 07038A   25342.28204020  .00000079  00000+0  65560-4 0  9995",
        "tle_line2": "2 32052  82.9803 346.5953 0039448  49.9892 310.4715 13.75148690915413"
      },
      "geometry": {
        "type": "Point",
        "coordinates": [
          -6.850443067345717,
          43.98161754137052
        ]
      }
    },
    {
      "type": "Feature",
      "properties": {
        "norad_id": 35635,
        "name": "COSMOS 2454",
        "group": "musson",
        "lat": 74.57834818661878,
        "lon": -34.889161184961,
        "alt_km": 907.6481012341528,
        "timestamp": "2025-12-08T15:42:50.060749+00:00",
        "meta_object_name": "COSMOS 2454",
        "meta_object_id": "2009-039A",
        "meta_epoch": "2025-12-08T07:24:34.074144",
        "meta_mean_motion": 13.89927813,
        "meta_eccentricity": 0.00204873,
        "meta_inclination": 82.9556,
        "meta_ra_of_asc_node": 172.0039,
        "meta_arg_of_pericenter": 85.5731,
        "meta_mean_anomaly": 87.6807,
        "meta_ephemeris_type": 0,
        "meta_classification_type": "U",
        "meta_norad_cat_id": 35635,
        "meta_element_set_no": 999,
        "meta_rev_at_epoch": 83088,
        "meta_bstar": 7.1914706e-05,
        "meta_mean_motion_dot": 1.05e-06,
        "meta_mean_motion_ddot": 0,
        "tle_line1": "1 35635U 09039A   25342.30872771  .00000105  00000+0  71915-4 0  9996",
        "tle_line2": "2 35635  82.9556 172.0039 0020487  85.5731  87.6807 13.89927813830885"
      },
      "geometry": {
        "type": "Point",
        "coordinates": [
          -34.889161184961,
          74.57834818661878
        ]
      }
    },
    {
      "type": "Feature",
      "properties": {
        "norad_id": 36519,
        "name": "COSMOS 2463",
        "group": "musson",
        "lat": 52.08995397780746,
        "lon": 38.842320683159905,
        "alt_km": 998.7171267155518,
        "timestamp": "2025-12-08T15:42:50.060760+00:00",
        "meta_object_name": "COSMOS 2463",
        "meta_object_id": "2010-017A",
        "meta_epoch": "2025-12-08T05:15:20.399904",
        "meta_mean_motion": 13.7164866,
        "meta_eccentricity": 0.00349017,
        "meta_inclination": 82.9616,
        "meta_ra_of_asc_node": 30.0346,
        "meta_arg_of_pericenter": 301.0604,
        "meta_mean_anomaly": 120.7428,
        "meta_ephemeris_type": 0,
        "meta_classification_type": "U",
        "meta_norad_cat_id": 36519,
        "meta_element_set_no": 999,
        "meta_rev_at_epoch": 78175,
        "meta_bstar": 8.9960527e-05,
        "meta_mean_motion_dot": 9.6e-07,
        "meta_mean_motion_ddot": 0,
        "tle_line1": "1 36519U 10017A   25342.21898611  .00000096  00000+0  89961-4 0  9996",
        "tle_line2": "2 36519  82.9616  30.0346 0034901 301.0604 120.7428 13.71648660781759"
      },
      "geometry": {
        "type": "Point",
        "coordinates": [
          38.842320683159905,
          52.08995397780746
        ]
      }
    }
  ]
}